{"spkid": "50837949", "covariance": {"elements": [{"label": "e", "name": "e", "sigma": 1.73871591012169e-07, "units": null, "title": "eccentricity", "value": ".7279234233445643"}, {"sigma": 3.58080639409161e-07, "name": "q", "value": ".5589489623073185", "title": "perihelion distance", "units": "au", "label": "q"}, {"sigma": 8.61897753667215e-06, "name": "tp", "units": "TDB", "value": "2458452.385276453791", "title": "time of perihelion passage", "label": "tp"}, {"label": "node", "sigma": 0.00018206413691137, "name": "om", "value": "264.5656005307171", "title": "longitude of the ascending node", "units": "deg"}, {"label": "peri", "name": "w", "sigma": 0.000179001134631342, "title": "argument of perihelion", "value": "121.0659236025923", "units": "deg"}, {"title": "inclination", "value": "4.129128957662386", "units": "deg", "name": "i", "sigma": 1.35011543062376e-05, "label": "i"}], "data": [["3.023133016110288E-14", "-6.225472463265622E-14", "5.333837124318127E-14", "-4.11311841137875E-12", "-2.33670963763982E-12", "-2.87156979674319E-14"], ["-6.225472463265622E-14", "1.282217443196733E-13", "-8.654407106084532E-14", "8.719885596113852E-12", "4.57801194401601E-12", "7.101844783641292E-14"], ["5.333837124318127E-14", "-8.654407106084532E-14", "7.428677377765917E-11", "5.453825132150681E-10", "-5.123889094508881E-10", "2.051000984979606E-11"], ["-4.11311841137875E-12", "8.719885596113852E-12", "5.453825132150681E-10", "3.314734994928221E-8", "-3.189072115412788E-8", "2.34803080875503E-9"], ["-2.33670963763982E-12", "4.57801194401601E-12", "-5.123889094508881E-10", "-3.189072115412788E-8", "3.204140619930772E-8", "-2.325128865684825E-9"], ["-2.87156979674319E-14", "7.101844783641292E-14", "2.051000984979606E-11", "2.34803080875503E-9", "-2.325128865684825E-9", "1.822811676008388E-10"]], "labels": ["e", "q", "tp", "node", "peri", "i"], "epoch": "2458746.5"}, "elements": [{"title": "eccentricity", "value": ".727991014186029", "units": null, "name": "e", "sigma": "1.7417E-7", "label": "e"}, {"name": "a", "sigma": "1.7244E-8", "units": "au", "title": "semi-major axis", "value": "2.054428639103162", "label": "a"}, {"label": "q", "value": ".5588230505496277", "title": "perihelion distance", "units": "au", "name": "q", "sigma": "3.5904E-7"}, {"label": "i", "value": "4.13128855595947", "title": "inclination; angle with respect to x-y ecliptic plane", "units": "deg", "sigma": "1.3492E-5", "name": "i"}, {"title": "longitude of the ascending node", "value": "264.4646893811228", "units": "deg", "sigma": ".00018203", "name": "om", "label": "node"}, {"label": "peri", "name": "w", "sigma": ".00017899", "value": "121.1557436869745", "title": "argument of perihelion", "units": "deg"}, {"label": "M", "name": "ma", "sigma": "1.3487E-5", "title": "mean anomaly", "value": "199.7633808016408", "units": "deg"}, {"value": "2461679.234019618056", "title": "time of perihelion passage", "units": "TDB", "name": "tp", "sigma": "4.6227E-5", "label": "tp"}, {"label": "period", "units": "d", "title": "sidereal orbital period", "value": "1075.560929360054", "name": "per", "sigma": "1.3542E-5"}, {"label": "n", "title": "mean motion", "value": ".3347090714927658", "units": "deg/d", "sigma": "4.2141E-9", "name": "n"}, {"label": "Q", "name": "ad", "sigma": "2.9797E-8", "units": "au", "value": "3.550034227656696", "title": "aphelion distance"}], "epoch": "2461200.5"}